{
    "links": {
        "self": "http://www.neowsapp.com/rest/v1/neo/3735650?api_key=iIulBulltgU6a56xZRHN4H3l9WmuAYTsLGpBGhQ2"
    },
    "id": "3735650",
    "neo_reference_id": "3735650",
    "name": "(2015 XG1)",
    "designation": "2015 XG1",
    "nasa_jpl_url": "http://ssd.jpl.nasa.gov/sbdb.cgi?sstr=3735650",
    "absolute_magnitude_h": 25.6,
    "estimated_diameter": {
        "kilometers": {
            "estimated_diameter_min": 0.0201629919,
            "estimated_diameter_max": 0.0450858206
        },
        "meters": {
            "estimated_diameter_min": 20.1629919443,
            "estimated_diameter_max": 45.0858206172
        },
        "miles": {
            "estimated_diameter_min": 0.0125286985,
            "estimated_diameter_max": 0.0280150214
        },
        "feet": {
            "estimated_diameter_min": 66.1515504905,
            "estimated_diameter_max": 147.9193637137
        }
    },
    "is_potentially_hazardous_asteroid": false,
    "close_approach_data": [
        {
            "close_approach_date": "2015-11-18",
            "close_approach_date_full": "2015-Nov-18 12:40",
            "epoch_date_close_approach": 1447850400000,
            "relative_velocity": {
                "kilometers_per_second": "4.4107542084",
                "kilometers_per_hour": "15878.7151501918",
                "miles_per_hour": "9866.41608874"
            },
            "miss_distance": {
                "astronomical": "0.0797522512",
                "lunar": "31.0236257168",
                "kilometers": "11930766.907224944",
                "miles": "7413434.7906104672"
            },
            "orbiting_body": "Earth"
        }
    ],
    "orbital_data": {
        "orbit_id": "9",
        "orbit_determination_date": "2017-04-06 08:30:18",
        "first_observation_date": "2015-12-02",
        "last_observation_date": "2015-12-30",
        "data_arc_in_days": 28,
        "observations_used": 27,
        "orbit_uncertainty": "7",
        "minimum_orbit_intersection": ".0729561",
        "jupiter_tisserand_invariant": "4.021",
        "epoch_osculation": "2459000.5",
        "eccentricity": ".3978541600579581",
        "semi_major_axis": "1.761919502087719",
        "inclination": "1.078505609100018",
        "ascending_node_longitude": "189.7611108547136",
        "orbital_period": "854.2353133892293",
        "perihelion_distance": "1.060932498494873",
        "perihelion_argument": "222.4161399869664",
        "aphelion_distance": "2.462906505680563",
        "perihelion_time": "2459052.211444689818",
        "mean_anomaly": "338.2072693594531",
        "mean_motion": ".4214295456502244",
        "equinox": "J2000",
        "orbit_class": {
            "orbit_class_type": "AMO",
            "orbit_class_description": "Near-Earth asteroid orbits similar to that of 1221 Amor",
            "orbit_class_range": "1.017 AU < q (perihelion) < 1.3 AU"
        }
    },
    "is_sentry_object": false
}